{
  "type": "FeatureCollection",
  "features": [
    {
      "type": "Feature",
      "properties": {
        "norad_id": 57400,
        "name": "TIANMU-1 08",
        "group": "weather",
        "lat": 78.18581318998515,
        "lon": 12.93145963737996,
        "alt_km": 470.0527517090577,
        "timestamp": "2025-12-27T07:26:24.864331+00:00",
        "meta_object_name": "TIANMU-1 08",
        "meta_object_id": "2023-101B",
        "meta_epoch": "2025-12-26T23:13:54.666048",
        "meta_mean_motion": 15.28257864,
        "meta_eccentricity": 0.00068185,
        "meta_inclination": 97.2846,
        "meta_ra_of_asc_node": 50.2994,
        "meta_arg_of_pericenter": 43.3759,
        "meta_mean_anomaly": 316.8017,
        "meta_ephemeris_type": 0,
        "meta_classification_type": "U",
        "meta_norad_cat_id": 57400,
        "meta_element_set_no": 999,
        "meta_rev_at_epoch": 13532,
        "meta_bstar": 0.00032109846,
        "meta_mean_motion_dot": 8.775e-05,
        "meta_mean_motion_ddot": 0,
        "tle_line1": "1 57400U 23101B   25360.96799382  .00008775  00000+0  32110-3 0  9998",
        "tle_line2": "2 57400  97.2846  50.2994 0006818  43.3759 316.8017 15.28257864135325"
      },
      "geometry": {
        "type": "Point",
        "coordinates": [
          12.93145963737996,
          78.18581318998515
        ]
      }
    },
    {
      "type": "Feature",
      "properties": {
        "norad_id": 57401,
        "name": "TIANMU-1 09",
        "group": "weather",
        "lat": 24.5977542635662,
        "lon": -126.50525250975566,
        "alt_km": 481.8790594499105,
        "timestamp": "2025-12-27T07:26:24.864348+00:00",
        "meta_object_name": "TIANMU-1 09",
        "meta_object_id": "2023-101C",
        "meta_epoch": "2025-12-26T22:54:26.663328",
        "meta_mean_motion": 15.28294344,
        "meta_eccentricity": 0.00060847,
        "meta_inclination": 97.2803,
        "meta_ra_of_asc_node": 49.7921,
        "meta_arg_of_pericenter": 44.4978,
        "meta_mean_anomaly": 315.6749,
        "meta_ephemeris_type": 0,
        "meta_classification_type": "U",
        "meta_norad_cat_id": 57401,
        "meta_element_set_no": 999,
        "meta_rev_at_epoch": 13532,
        "meta_bstar": 0.00033348626,
        "meta_mean_motion_dot": 9.125e-05,
        "meta_mean_motion_ddot": 0,
        "tle_line1": "1 57401U 23101C   25360.95447527  .00009125  00000+0  33349-3 0  9994",
        "tle_line2": "2 57401  97.2803  49.7921 0006084  44.4978 315.6749 15.28294344135325"
      },
      "geometry": {
        "type": "Point",
        "coordinates": [
          -126.50525250975566,
          24.5977542635662
        ]
      }
    },
    {
      "type": "Feature",
      "properties": {
        "norad_id": 57402,
        "name": "TIANMU-1 10",
        "group": "weather",
        "lat": -33.378115878133286,
        "lon": 55.84173675415253,
        "alt_km": 485.69448841848225,
        "timestamp": "2025-12-27T07:26:24.864363+00:00",
        "meta_object_name": "TIANMU-1 10",
        "meta_object_id": "2023-101D",
        "meta_epoch": "2025-12-26T22:09:31.815360",
        "meta_mean_motion": 15.28284792,
        "meta_eccentricity": 0.00077835,
        "meta_inclination": 97.2883,
        "meta_ra_of_asc_node": 50.6264,
        "meta_arg_of_pericenter": 41.7754,
        "meta_mean_anomaly": 318.4079,
        "meta_ephemeris_type": 0,
        "meta_classification_type": "U",
        "meta_norad_cat_id": 57402,
        "meta_element_set_no": 999,
        "meta_rev_at_epoch": 13531,
        "meta_bstar": 0.00029622313,
        "meta_mean_motion_dot": 8.097e-05,
        "meta_mean_motion_ddot": 0,
        "tle_line1": "1 57402U 23101D   25360.92328490  .00008097  00000+0  29622-3 0  9995",
        "tle_line2": "2 57402  97.2883  50.6264 0007783  41.7754 318.4079 15.28284792135316"
      },
      "geometry": {
        "type": "Point",
        "coordinates": [
          55.84173675415253,
          -33.378115878133286
        ]
      }
    },
    {
      "type": "Feature",
      "properties": {
        "norad_id": 57490,
        "name": "FENGYUN 3F",
        "group": "weather",
        "lat": -43.41354656957292,
        "lon": 77.70282199182986,
        "alt_km": 832.9064205638288,
        "timestamp": "2025-12-27T07:26:24.864384+00:00",
        "meta_object_name": "FENGYUN 3F",
        "meta_object_id": "2023-111A",
        "meta_epoch": "2025-12-26T23:11:28.503168",
        "meta_mean_motion": 14.19897337,
        "meta_eccentricity": 8.677e-05,
        "meta_inclination": 98.7064,
        "meta_ra_of_asc_node": 69.029,
        "meta_arg_of_pericenter": 117.9674,
        "meta_mean_anomaly": 242.159,
        "meta_ephemeris_type": 0,
        "meta_classification_type": "U",
        "meta_norad_cat_id": 57490,
        "meta_element_set_no": 999,
        "meta_rev_at_epoch": 12442,
        "meta_bstar": 6.0140058e-05,
        "meta_mean_motion_dot": 8.4e-07,
        "meta_mean_motion_ddot": 0,
        "tle_line1": "1 57490U 23111A   25360.96630212  .00000084  00000+0  60140-4 0  9994",
        "tle_line2": "2 57490  98.7064  69.0290 0000867 117.9674 242.1590 14.19897337124421"
      },
      "geometry": {
        "type": "Point",
        "coordinates": [
          77.70282199182986,
          -43.41354656957292
        ]
      }
    },
    {
      "type": "Feature",
      "properties": {
        "norad_id": 58584,
        "name": "ARKTIKA-M 2",
        "group": "weather",
        "lat": 26.204048617605725,
        "lon": -172.3131485570368,
        "alt_km": 15560.951269367411,
        "timestamp": "2025-12-27T07:26:24.864404+00:00",
        "meta_object_name": "ARKTIKA-M 2",
        "meta_object_id": "2023-198A",
        "meta_epoch": "2025-12-25T18:56:09.299328",
        "meta_mean_motion": 2.00602256,
        "meta_eccentricity": 0.686608,
        "meta_inclination": 63.2255,
        "meta_ra_of_asc_node": 173.4714,
        "meta_arg_of_pericenter": 268.0516,
        "meta_mean_anomaly": 18.8422,
        "meta_ephemeris_type": 0,
        "meta_classification_type": "U",
        "meta_norad_cat_id": 58584,
        "meta_element_set_no": 999,
        "meta_rev_at_epoch": 1484,
        "meta_bstar": 0,
        "meta_mean_motion_dot": 2.31e-06,
        "meta_mean_motion_ddot": 0,
        "tle_line1": "1 58584U 23198A   25359.78899652  .00000231  00000+0  00000+0 0  9995",
        "tle_line2": "2 58584  63.2255 173.4714 6866080 268.0516  18.8422  2.00602256 14849"
      },
      "geometry": {
        "type": "Point",
        "coordinates": [
          -172.3131485570368,
          26.204048617605725
        ]
      }
    },
    {
      "type": "Feature",
      "properties": {
        "norad_id": 58645,
        "name": "TIANMU-1 11",
        "group": "weather",
        "lat": -36.97136959817637,
        "lon": 26.26145018861825,
        "alt_km": 496.511902798552,
        "timestamp": "2025-12-27T07:26:24.864422+00:00",
        "meta_object_name": "TIANMU-1 11",
        "meta_object_id": "2023-205A",
        "meta_epoch": "2025-12-26T23:43:42.929184",
        "meta_mean_motion": 15.2477347,
        "meta_eccentricity": 0.00075959,
        "meta_inclination": 97.3601,
        "meta_ra_of_asc_node": 20.3618,
        "meta_arg_of_pericenter": 249.2065,
        "meta_mean_anomaly": 110.8359,
        "meta_ephemeris_type": 0,
        "meta_classification_type": "U",
        "meta_norad_cat_id": 58645,
        "meta_element_set_no": 999,
        "meta_rev_at_epoch": 11126,
        "meta_bstar": 0.00029498702,
        "meta_mean_motion_dot": 7.247e-05,
        "meta_mean_motion_ddot": 0,
        "tle_line1": "1 58645U 23205A   25360.98869131  .00007247  00000+0  29499-3 0  9996",
        "tle_line2": "2 58645  97.3601  20.3618 0007595 249.2065 110.8359 15.24773470111268"
      },
      "geometry": {
        "type": "Point",
        "coordinates": [
          26.26145018861825,
          -36.97136959817637
        ]
      }
    },
    {
      "type": "Feature",
      "properties": {
        "norad_id": 58646,
        "name": "TIANMU-1 12",
        "group": "weather",
        "lat": 10.966016566980338,
        "lon": -158.08684880120884,
        "alt_km": 491.06282496072254,
        "timestamp": "2025-12-27T07:26:24.864438+00:00",
        "meta_object_name": "TIANMU-1 12",
        "meta_object_id": "2023-205B",
        "meta_epoch": "2025-12-27T00:24:04.036896",
        "meta_mean_motion": 15.24660937,
        "meta_eccentricity": 0.00061177,
        "meta_inclination": 97.3588,
        "meta_ra_of_asc_node": 20.1901,
        "meta_arg_of_pericenter": 226.9302,
        "meta_mean_anomaly": 133.1424,
        "meta_ephemeris_type": 0,
        "meta_classification_type": "U",
        "meta_norad_cat_id": 58646,
        "meta_element_set_no": 999,
        "meta_rev_at_epoch": 11125,
        "meta_bstar": 0.00031309236,
        "meta_mean_motion_dot": 7.668e-05,
        "meta_mean_motion_ddot": 0,
        "tle_line1": "1 58646U 23205B   25361.01671339  .00007668  00000+0  31309-3 0  9993",
        "tle_line2": "2 58646  97.3588  20.1901 0006117 226.9302 133.1424 15.24660937111254"
      },
      "geometry": {
        "type": "Point",
        "coordinates": [
          -158.08684880120884,
          10.966016566980338
        ]
      }
    }
  ]
}